QIANFAN-1               
1 60379U 24140A   26004.80075277  .00000192  00000+0  27754-3 0  9993
2 60379  88.9777 296.8960 0018080 142.6994 217.5417 13.50983751 70461
QIANFAN-2               
1 60380U 24140B   26004.82966859  .00000193  00000+0  27947-3 0  9997
2 60380  88.9764 296.7292 0014115 115.0072 245.2547 13.50987569 70522
QIANFAN-3               
1 60381U 24140C   26004.83782883  .00000197  00000+0  28656-3 0  9994
2 60381  88.9756 296.8592 0014930 126.9159 233.3363 13.50988128 70436
QIANFAN-4               
1 60382U 24140D   26004.81307662  .00000178  00000+0  25620-3 0  9998
2 60382  88.9781 296.7653 0014288 117.5052 242.7553 13.50983791 70555
QIANFAN-5               
1 60383U 24140E   26004.86255976  .00000186  00000+0  26926-3 0  9993
2 60383  88.9756 296.8820 0015886 137.9581 222.2792 13.50985831 70424
QIANFAN-6               
1 60384U 24140F   26004.80907681  .00000178  00000+0  25711-3 0  9997
2 60384  88.9783 296.6400 0014269 122.9646 237.2879 13.50986081 70618
QIANFAN-7               
1 60385U 24140G   26004.80397505  .00001184  00000+0  47438-3 0  9994
2 60385  88.9795 291.0152 0014414 333.7078  26.3383 14.27692364 73688
QIANFAN-8               
1 60386U 24140H   26004.81736758  .00000175  00000+0  25201-3 0  9996
2 60386  88.9784 296.8769 0017656 126.2535 234.0251 13.50987479 70462
